RADUGA 1 [-]            
1 08513U 75123A   24012.81387594 -.00000136  00000+0  00000+0 0  9998
2 08513   5.0938 280.4664 0005774 243.4899 322.7474  1.00252224185928
RADUGA 2 [-]            
1 09416U 76092A   24012.88210181  .00000027  00000+0  00000+0 0  9999
2 09416   5.7627 282.6416 0028497  12.9280 198.5277  1.00259724120440
RADUGA 3 [-]            
1 10159U 77071A   24012.88088347  .00000060  00000+0  00000+0 0  9997
2 10159   6.3901 285.5105 0008693 263.2222 298.9120  1.00347683168152
RADUGA 4 [-]            
1 10987U 78073A   24012.77072593 -.00000283  00000+0  00000+0 0  9991
2 10987   7.0312 289.3869 0009589  11.1746 189.3311  1.00218208110714
RADUGA 5 [-]            
1 11343U 79035A   24012.87966111 -.00000050  00000+0  00000+0 0  9998
2 11343   7.5078 292.4217 0005257 191.5371  16.7840  1.00295550120437
RADUGA 6 [-]            
1 11708U 80016A   24012.88201477  .00000038  00000+0  00000+0 0  9997
2 11708   7.8882 295.7889 0001760 239.0786 319.0116  1.00203433113270
RADUGA 7 [-]            
1 12003U 80081A   24012.84833697 -.00000059  00000+0  00000+0 0  9993
2 12003   8.0882 297.9206 0009834 285.5927  88.6730  1.00160154114423
RADUGA 8 [-]            
1 12351U 81027A   24012.78359201 -.00000255  00000+0  00000+0 0  9995
2 12351   8.4271 298.4100 0080671 245.9047 138.5703  1.00399204113654
RADUGA 9 [-]            
1 12618U 81069A   24012.88410331 -.00000055  00000+0  00000+0 0  9998
2 12618   8.6718 301.7035 0002384 167.1390  36.3007  1.00187065 38450
RADUGA 10 [-]           
1 12897U 81102A   24012.88218882  .00000015  00000+0  00000+0 0  9997
2 12897   8.7693 302.7825 0004561 206.5554 345.3646  1.00280328108455
RADUGA 11 [-]           
1 13669U 82113A   24012.72926149 -.00000135  00000+0  00000+0 0  9997
2 13669  10.9668 317.4502 0039578 269.4350 281.2903  0.97709571112879
RADUGA 12 [-]           
1 13974U 83028A   24012.88419035 -.00000076  00000+0  00000+0 0  9994
2 13974  10.0312 313.1024 0000507  84.6740 107.7886  1.00248600160496
RADUGA 13 [-]           
1 14307U 83088A   24013.08268257 -.00000171  00000+0  00000+0 0  9998
2 14307  11.2431 318.9380 0015725  46.8960 128.7579  0.98175446110234
RADUGA 14 [-]           
1 14725U 84016A   24012.87966111 -.00000023  00000+0  00000+0 0  9990
2 14725  10.2954 317.1213 0003375 157.6105  22.2862  1.00294188109211
RADUGA 15 [-]           
1 15057U 84063A   24013.01723000  .00000137  00000+0  00000+0 0  9991
2 15057  10.4302 318.1251 0004662 181.6309   2.2591  1.00231211132193
RADUGA 16 [-]           
1 15946U 85070A   24013.14794962 -.00000248  00000+0  00000+0 0  9990
2 15946  10.9715 322.9245 0001686 222.0222 301.2159  1.00310987113331
RADUGA 17 [-]           
1 16250U 85107A   24012.88558270 -.00000117  00000+0  00000+0 0  9995
2 16250  11.1176 324.3852 0013252 205.3058 343.0679  1.00122075142799
RADUGA 18 [-]           
1 16497U 86007A   24012.88601781  .00000013  00000+0  00000+0 0  9998
2 16497  11.9624 327.1865 0074233 179.2738   8.7379  0.98810403137109
RADUGA 19 [-]           
1 17046U 86082A   24012.84077337 -.00000142  00000+0  00000+0 0  9996
2 17046  12.4652 331.2401 0012608 169.2578  33.7258  0.98460563134185
RADUGA 20 [-]           
1 17611U 87028A   24012.35181971 -.00000082  00000+0  00000+0 0  9994
2 17611  14.5300 334.6568 0029800 153.4615  29.0701  0.95960834129803
RADUGA 21 [-]           
1 18631U 87100A   24012.78750806 -.00000287  00000+0  00000+0 0  9991
2 18631  12.5802 331.7757 0002484 166.3226 206.7920  1.00278852132203
RADUGA 22 [-]           
1 19596U 88095A   24012.58457958  .00000049  00000+0  00000+0 0  9991
2 19596  12.6549 336.3072 0007446 165.3070 189.3028  1.00276989112755
RADUGA 23 [-]           
1 19928U 89030A   24012.88828042 -.00000266  00000+0  00000+0 0  9991
2 19928  12.8365 338.1283 0021193 181.4792   7.7902  1.00192566125960
RADUGA-1 1 [-]          
1 20083U 89048A   24012.88958576 -.00000078  00000+0  00000+0 0  9991
2 20083  13.6516 341.2913 0021212 131.3425  61.9491  0.98707638122527
RADUGA 24 [-]           
1 20367U 89098A   24012.88932469 -.00000320  00000+0  00000+0 0  9994
2 20367  13.4632 340.2704 0002056 205.6567 347.1702  1.00305056124082
RADUGA 25 [-]           
1 20499U 90016A   24013.12227792  .00000098  00000+0  00000+0 0  9997
2 20499  13.2487 341.0155 0004963 177.2492 190.0621  1.00302680124066
RADUGA 26 [-]           
1 21016U 90112A   24012.95405148 -.00000009  00000+0  00000+0 0  9996
2 21016  13.6309 344.2777 0005822 112.3555  64.7398  1.00227330121354
RADUGA-1 2 [-]          
1 21038U 90116A   24012.90327063 -.00000268  00000+0  00000+0 0  9995
2 21038  13.6714 344.3318 0007197 122.8511  64.4701  1.00235291 38453
RADUGA 27 [-]           
1 21132U 91014A   24012.82327441 -.00000346  00000+0  00000+0 0  9996
2 21132  14.1689 343.6655 0001822 131.7823  61.8653  1.00272715120423
RADUGA 28 [-]           
1 21821U 91087A   24012.52279341  .00000025  00000+0  00000+0 0  9996
2 21821  14.0277 347.5887 0006272 154.7097 216.2832  1.00355291117435
RADUGA 29 [-]           
1 22557U 93013A   24012.82240417 -.00000364  00000+0  00000+0 0  9996
2 22557  14.3242 351.7386 0006636 142.3798  38.3514  1.00219559112793
RADUGA 30 [-]           
1 22836U 93062A   24012.45549091 -.00000152  00000+0  00000+0 0  9994
2 22836  14.4167 353.7597 0001959 290.5317  71.2536  1.00280344 37114
RADUGA-1 3 [-]          
1 22981U 94008A   24012.52427281 -.00000034  00000+0  00000+0 0  9999
2 22981  14.5237 354.8929 0002408 152.7570 218.9698  1.00327100109622
RADUGA 31 [-]           
1 23010U 94012A   24012.95483469 -.00000043  00000+0  00000+0 0  9995
2 23010  14.4877 354.8896 0004256 123.2976  47.4996  1.00206068109450
RADUGA 32 [-]           
1 23448U 94087A   24012.45531686 -.00000142  00000+0  00000+0 0  9992
2 23448  14.5400 357.6381 0006650 224.4373 132.2558  1.00280280123982
RADUGA-1 4 [-]          
1 25642U 99010A   24012.96083926 -.00000311  00000+0  00000+0 0  9994
2 25642  15.3835   8.9471 0002572 247.5673 302.1345  1.00212633 91089
RADUGA-1 5 [-]          
1 26477U 00049A   24012.96014309 -.00000286  00000+0  00000+0 0  9995
2 26477  13.4552  14.4359 0003366  81.9094  98.1428  1.00225785 85604
RADUGA-1 6 [-]          
1 26936U 01045A   24012.48730088 -.00000075  00000+0  00000+0 0  9994
2 26936  13.7827  20.9132 0017659 183.4378   6.6499  0.97744040 79932
RADUGA-1 7 [-]          
1 28194U 04010A   24012.72946383  .00000093  00000+0  00000+0 0  9990
2 28194  12.6397  27.5456 0004012 211.7844 152.2778  1.00286856 72532
RADUGA-1M 1 [-]         
1 32373U 07058A   24012.90540576 -.00000099  00000+0  00000+0 0  9990
2 32373   8.1798  59.7397 0001161 271.5668 288.3558  0.99400563 59501
RADUGA-1 8 [-]          
1 34264U 09010A   24012.63400852 -.00000049  00000+0  00000+0 0  9998
2 34264  10.3600  49.5630 0012042  10.8878 177.3006  0.99816539 54327
RADUGA-1M 2 [+]         
1 36358U 10002A   24012.88619186 -.00000175  00000+0  00000+0 0  9996
2 36358   1.3141  90.6119 0002568 181.7625 243.5148  1.00268574 41201
RADUGA-1M 3 [+]         
1 39375U 13062A   24012.80456450  .00000161  00000+0  00000+0 0  9996
2 39375   3.6972  83.1901 0001187  47.2826 305.9475  1.00270279 37218
